#dP2022  7 20  6  0  0.00000000      96 __u+U ITR00 EXT  IAC
## 2219 280800.00000000   900.00000000 59780 0.2500000000000
+  116   C06C07C08C09C10C11C12C13C14C16C19C20C21C22C23C24C25
+        C26C27C28C29C30C32C33C34C35C36C37C38C39C40C41C42C43
+        C44C45C46E01E02E03E04E05E07E08E09E10E11E12E13E14E15
+        E18E19E21E24E25E26E27E30E31E33E34E36G01G02G03G04G05
+        G06G07G08G09G10G11G12G13G14G15G16G17G18G19G20G21G22
+        G23G24G25G26G27G28G29G30G31G32J02J03R01R02R03R04R05
+        R07R08R09R11R12R13R14R15R17R18R19R20R21R24  0  0  0
++        11  9 10 11 10  8  9 10  8 11  8  8  8  8  9  7  9
++         9  8  9  9  9  9  7  8  7 10  8  8 10 12  8  7  7
++        10  9  8  7  7  7  8  7  8  9  7  8  8  8  7  7  9
++         8  7  7  6  8  8  8  9  7  8  7  8  7  7  8  7 11
++         8  8  7  7  7  7  7  7  7  7  7  7  7  9  8  7  6
++         8  8  8  7  7  8  8  7  8  8  9  9 10  9  9  7  7
++         9  9  9  8  8  9  9  7  7  8  8  8  9  8  0  0  0
%c M  cc GPS ccc cccc cccc cccc cccc ccccc ccccc ccccc ccccc
%c cc cc ccc ccc cccc cccc cccc cccc ccccc ccccc ccccc ccccc
%f  0.0000000  0.000000000  0.00000000000  0.000000000000000
%f  0.0000000  0.000000000  0.00000000000  0.000000000000000
%i    0    0    0    0      0      0      0      0         0
%i    0    0    0    0      0      0      0      0         0
/* IAC                                ULTRA-RAPID PREDICTION
/* S/V CLOCKS ARE ALIGNED TO GNSS TIME                      
/* G:C1WC2W R:C1PC2P E:C1XC5X C:C2IC6I J:C1CC2S             
/* PCV:IGS14_2215 OL/AL:FES2004  NONE     YN ORB:CoN CLK:CoN
*  2022 07 20 16 15  0.00000000
PC06 -13559.517292  24386.610610  31559.475320    434.714223
PC07 -11723.024322  40582.193273   -923.285624   -454.868169
PC08   2356.528537  30085.847357 -29369.695080    411.524324
PC09  -4802.541927  24742.064215  34121.642444   -921.760994
PC10  -7036.540961  41334.512015  -6274.711108    116.723443
PC11  25951.474213  -8359.107804   5916.145665    486.003242
PC12  25202.112048   3124.826799 -11514.873286   -572.446022
PC13   6368.314407  32667.614562 -25596.430178     29.440256
PC14  16933.892216 -14780.958454  16516.926575    550.077573
PC16 -16259.291429  23677.972789  30963.858530    143.275983
PC19 -13813.679451  22661.447178  -8641.676462   -251.076266
PC20 -17295.852644   6631.881849 -20870.651483   -963.983476
PC21  10546.725854  14580.089626  21350.162448    -21.055453
PC22  -2262.878177  26300.458554   9097.396791   -962.959996
PC23  -6416.191515 -23048.367996 -14351.304918   -948.350996
PC24  21321.115313   5738.673464 -17053.957590   -967.689460
PC25   9547.793359 -13478.650514 -22496.907819   -704.847301
PC26  20256.586225  18940.256797  -2956.840346    706.822459
PC27 -19424.713523  -8970.778376  17886.573443    757.165897
PC28   -522.295169 -16004.958673  22852.537635     92.192106
PC29 -19179.513120  14479.054522 -14199.368962    584.255050
PC30 -27427.917452   3873.820799   3299.709381    501.272761
PC32 -10632.884568 -14532.588774 -21301.574293   -972.176236
PC33  13746.130826 -22639.486531   8758.966855   -211.487781
PC34  27452.340338  -4527.721285  -2288.219730   -354.585286
PC35   -273.131101  16271.802166 -22678.985332    374.618790
PC36 -10339.858665  12786.812225  22576.924513   -972.245332
PC37 -19330.845953 -20060.435037   1812.238131   -919.336789
PC38  -5507.863584  26654.697957 -32135.714684     11.437877
PC39 -21828.315120  23490.564716  27292.309965     -0.112730
PC40 -18201.170485  38110.097469   1825.278064     -0.909537
PC41   2548.026385 -26416.381468  -8569.774035    -96.404350
PC42  17240.700250  -5339.144141  21318.583214   -952.951218
PC43  19827.324749 -14207.039514  13560.476948      3.994921
PC44  19613.827790   8511.302759 -17962.795107    730.206856
PC45   6738.701415  23064.385091  14185.001141    813.875386
PC46 -20823.861017  -4260.455483  18108.800069   -442.226870
PE01   2102.825758 -27475.199443 -10803.465569   -518.849049
PE02  -1991.241996  27537.806431  10661.480926    313.166356
PE03 -11243.861755  23363.474734  14294.151761   -580.971988
PE04  -7457.370337 -15837.568698 -23859.990881  -1075.581355
PE05 -23712.193752  17290.305724  -3882.270492   -161.185522
PE07  22204.623880  -1246.988038  19535.920563   -689.236352
PE08   7566.184819  15604.291899  23992.903554   -566.956363
PE09 -22136.172196   1426.064568 -19601.905256   -594.275590
PE10 -25240.344918 -13436.251459   7654.755738   -501.841949
PE11 -28481.731821  -7575.518213  -2717.015197   2941.113224
PE12 -18079.989818 -17009.117285  16103.922838    -72.123361
PE13  28429.185676   8011.119050   1953.870396    429.900152
PE14  17824.057395  10291.684958 -21904.777922  -1773.503041
PE15  17990.409637  16961.886225 -16276.306129    732.069468
PE18 -24965.491969   4577.346472  10828.416735  -1191.650508
PE19  13498.247710 -23282.044318 -12317.020641  -5039.469946
PE21  13029.997268 -13800.840345 -22708.488806   -747.018110
PE24 -17226.047947  -9980.508201  21903.120131   -735.422757
PE25 -13166.906048  13508.079549  22821.788708   -581.722056
PE26  21466.855038  -6251.773460  19389.212467  -1399.256368
PE27  17293.045644   8681.496719 -22390.426925   -349.232604
PE30  10776.944671  26356.423670  -8073.660905   -687.806845
PE31 -11356.045597 -25840.829901   8923.237724   -500.242482
PE33   3001.898711 -15859.816034  24806.933281   -454.530502
PE34  -2771.947689  15933.845646 -24804.114576   -486.806558
PE36 -22093.531274   5575.949219 -18897.555527   -404.919263
PG01  21840.773856  14470.122241  -5679.545590    317.695063
PG02  -4863.147946 -16874.295955  20533.078303   -651.044965
PG03  12246.053717  17728.991615  15483.893301   -312.158851
PG04  14366.737000   7967.267317  20895.955086   -143.587414
PG05  -6166.141439 -25508.750913  -3732.805792    -89.844980
PG06  11829.923222 -10203.957819  21552.605576    392.824511
PG07  24771.423382   4530.751747  -8774.204841    318.550737
PG08   7309.495150  13416.695095 -21742.898790    -77.005628
PG09  21557.146539  -2567.302103  15259.032142   -317.083893
PG10 -11907.444717  13340.977615 -19389.012530   -498.743480
PG11  -1469.263537 -16843.479637  20484.729731    -10.473469
PG12  -9781.218264 -20564.997492  13492.500821   -249.405924
PG13   3496.536806 -17310.292162 -19939.606156    352.149391
PG14  13395.030213 -11626.696385 -19734.241537   -111.561665
PG15  -9230.380741 -13258.698630 -21484.871376    -43.900578
PG16   -622.536580  26264.606429   1139.114963   -516.409001
PG17  22751.786890 -13719.566148   -589.710009    639.069794
PG18 -24390.684091  -4298.159410  -9775.846290    107.496979
PG19  19074.759362 -16572.172418   7530.174395    186.258251
PG20    185.822748 -25115.683282   8986.972728    501.624516
PG21  16811.260806  15821.726029 -13107.147311    161.022929
PG22 -16362.002673  18227.961569  10464.106322    295.622819
PG23 -14921.154975   1783.178838 -21912.392228    -33.747701
PG24 -20115.244737 -14932.542248  -9730.168268    191.865561
PG25 -15146.289601  -7570.513310  20240.131686    351.394427
PG26  -5048.559157  23152.324514  11591.088621    219.289230
PG27  -6041.352045  19033.825321 -17526.122325    220.896919
PG28   9498.946291 -20333.837384 -13874.195079    335.976214
PG29 -21692.085037   1154.889711  15285.992337   -535.338614
PG30  19973.675596  -4383.393691 -16991.425449   -534.399036
PG31 -10035.000814  11972.707951  21389.624077   -186.500535
PG32 -20892.822958  16194.236707   1202.713270   -181.373636
PJ02 -26768.212759  24289.455086  26758.807841     -1.936448
PJ03 -31763.464346  18709.840068 -15917.057215     -0.196011
PR01 -14045.786051   5469.489438 -20581.263431     11.789172
PR02 -14444.507727  20266.380536  -5403.719923    524.675869
PR03  -5773.287875  21835.257150  11846.347783     60.540779
PR04   5638.226759  11145.419496  22267.042837    151.288946
PR05  14165.172854  -5578.498426  20484.787200     96.537158
PR07   5420.628812 -21648.063484 -12359.824950     38.125959
PR08  -5810.142467 -11089.202343 -22171.884545    -66.308533
PR09   5739.210640 -11390.537882 -22055.777822     66.799609
PR11 -15052.530643 -20023.610124   4778.586259     32.743760
PR12 -14808.465157  -6074.790263  19896.930107     19.392559
PR13  -6462.923610  10077.966622  22515.900876    -24.818417
PR14   6701.455188  21746.407100  11566.622119     24.813068
PR15  15077.339239  19789.149143  -5626.288090     94.584665
PR17   -219.318837  10551.735769 -23221.099999    545.167409
PR18  17072.462931   7745.648710 -17313.454849     33.630053
PR19  25159.742808   2213.640967  -3545.517546   -197.009450
PR20  18855.504726  -6544.280821  15907.214066    -74.976558
PR21  -1532.791443 -10443.172198  23215.557791   -318.945618
PR24 -18135.929155   7598.090822 -16250.908695    104.543723
EOF
